ONEWEB-0275             
1 48993U 21060AC  24171.55854732  .00000113  00000+0  26217-3 0  9991
2 48993  87.9104  13.6297 0002001  83.0167 277.1191 13.16594458143811
ONEWEB-0276             
1 48994U 21060AD  24171.59179497 -.00000007  00000+0 -51434-4 0  9998
2 48994  87.9102  13.6189 0002074  80.5393 279.5972 13.16594442143831
ONEWEB-0277             
1 48995U 21060AE  24171.60445987  .00000025  00000+0  30833-4 0  9999
2 48995  87.9102  13.6545 0002373  81.8522 278.2878 13.16594466143824
ONEWEB-0278             
1 48996U 21060AF  24171.59495892  .00000010  00000+0 -83127-5 0  9998
2 48996  87.9102  13.6152 0001585  80.2610 279.8700 13.16594874143952
ONEWEB-0279             
1 48997U 21060AG  24171.60287926 -.00000012  00000+0 -66121-4 0  9995
2 48997  87.9101  13.6113 0002285  84.3865 275.7527 13.16594040143883
ONEWEB-0280             
1 48998U 21060AH  24171.61712799  .00000081  00000+0  17863-3 0  9990
2 48998  87.9104  13.6100 0001851  78.4231 281.7107 13.16594210143826
ONEWEB-0281             
1 48999U 21060AJ  24171.62346282  .00000107  00000+0  24644-3 0  9996
2 48999  87.9102  13.6105 0001881  93.4605 266.6741 13.16594290143896
ONEWEB-0282             
1 49000U 21060AK  24171.57754800  .00000037  00000+0  63410-4 0  9990
2 49000  87.9102  13.6363 0002088  79.0973 281.0393 13.16594455143868
